{
    "links": {
        "self": "http://www.neowsapp.com/rest/v1/neo/3733272?api_key=iIulBulltgU6a56xZRHN4H3l9WmuAYTsLGpBGhQ2"
    },
    "id": "3733272",
    "neo_reference_id": "3733272",
    "name": "(2015 VJ2)",
    "designation": "2015 VJ2",
    "nasa_jpl_url": "http://ssd.jpl.nasa.gov/sbdb.cgi?sstr=3733272",
    "absolute_magnitude_h": 19.6,
    "estimated_diameter": {
        "kilometers": {
            "estimated_diameter_min": 0.3195618867,
            "estimated_diameter_max": 0.7145621017
        },
        "meters": {
            "estimated_diameter_min": 319.5618867213,
            "estimated_diameter_max": 714.5621017269
        },
        "miles": {
            "estimated_diameter_min": 0.1985664891,
            "estimated_diameter_max": 0.4440081677
        },
        "feet": {
            "estimated_diameter_min": 1048.4314204307,
            "estimated_diameter_max": 2344.3639258298
        }
    },
    "is_potentially_hazardous_asteroid": false,
    "close_approach_data": [
        {
            "close_approach_date": "1958-11-22",
            "close_approach_date_full": "1958-Nov-22 10:52",
            "epoch_date_close_approach": -350572080000,
            "relative_velocity": {
                "kilometers_per_second": "17.8630937434",
                "kilometers_per_hour": "64307.1374761061",
                "miles_per_hour": "39957.9543945282"
            },
            "miss_distance": {
                "astronomical": "0.220342342",
                "lunar": "85.713171038",
                "kilometers": "32962745.03401154",
                "miles": "20482099.996537652"
            },
            "orbiting_body": "Earth"
        },
        {
            "close_approach_date": "1983-11-10",
            "close_approach_date_full": "1983-Nov-10 10:32",
            "epoch_date_close_approach": 437308320000,
            "relative_velocity": {
                "kilometers_per_second": "23.0923180241",
                "kilometers_per_hour": "83132.3448867553",
                "miles_per_hour": "51655.2061881064"
            },
            "miss_distance": {
                "astronomical": "0.4666715069",
                "lunar": "181.5352161841",
                "kilometers": "69813063.421930303",
                "miles": "43379826.0611240614"
            },
            "orbiting_body": "Earth"
        },
        {
            "close_approach_date": "1990-11-26",
            "close_approach_date_full": "1990-Nov-26 06:44",
            "epoch_date_close_approach": 659601840000,
            "relative_velocity": {
                "kilometers_per_second": "17.5598362937",
                "kilometers_per_hour": "63215.4106574377",
                "miles_per_hour": "39279.5978054507"
            },
            "miss_distance": {
                "astronomical": "0.3673063789",
                "lunar": "142.8821813921",
                "kilometers": "54948251.920852943",
                "miles": "34143260.4995908934"
            },
            "orbiting_body": "Earth"
        },
        {
            "close_approach_date": "2015-11-16",
            "close_approach_date_full": "2015-Nov-16 23:31",
            "epoch_date_close_approach": 1447716660000,
            "relative_velocity": {
                "kilometers_per_second": "19.7875110041",
                "kilometers_per_hour": "71235.0396148259",
                "miles_per_hour": "44262.6833651122"
            },
            "miss_distance": {
                "astronomical": "0.2709142984",
                "lunar": "105.3856620776",
                "kilometers": "40528201.993184408",
                "miles": "25183056.9646965104"
            },
            "orbiting_body": "Earth"
        },
        {
            "close_approach_date": "2047-11-21",
            "close_approach_date_full": "2047-Nov-21 15:57",
            "epoch_date_close_approach": 2457964620000,
            "relative_velocity": {
                "kilometers_per_second": "18.0285682413",
                "kilometers_per_hour": "64902.8456686192",
                "miles_per_hour": "40328.1042989262"
            },
            "miss_distance": {
                "astronomical": "0.1995479633",
                "lunar": "77.6241577237",
                "kilometers": "29851950.272518171",
                "miles": "18549141.7642099198"
            },
            "orbiting_body": "Earth"
        }
    ],
    "orbital_data": {
        "orbit_id": "27",
        "orbit_determination_date": "2017-04-06 08:30:57",
        "first_observation_date": "2015-11-02",
        "last_observation_date": "2015-12-29",
        "data_arc_in_days": 57,
        "observations_used": 212,
        "orbit_uncertainty": "6",
        "minimum_orbit_intersection": ".200684",
        "jupiter_tisserand_invariant": "3.210",
        "epoch_osculation": "2459000.5",
        "eccentricity": ".508358664881258",
        "semi_major_axis": "2.328905515870915",
        "inclination": "32.09595816626733",
        "ascending_node_longitude": "233.7842229480855",
        "orbital_period": "1298.154045507742",
        "perihelion_distance": "1.144986217188179",
        "perihelion_argument": "209.8880892122962",
        "aphelion_distance": "3.512824814553651",
        "perihelion_time": "2458661.074095287079",
        "mean_anomaly": "94.12852513112833",
        "mean_motion": ".2773168571524919",
        "equinox": "J2000",
        "orbit_class": {
            "orbit_class_type": "AMO",
            "orbit_class_description": "Near-Earth asteroid orbits similar to that of 1221 Amor",
            "orbit_class_range": "1.017 AU < q (perihelion) < 1.3 AU"
        }
    },
    "is_sentry_object": false
}